COSMOS 1975             
1 19573U 88093A   26107.22277987  .00003322  00000+0  11809-3 0  9994
2 19573  82.5176  78.9777 0012671  43.2245 316.9987 15.28561978 25291
SL-14 R/B               
1 19574U 88093B   26107.20457281  .00000253  00000+0  26285-4 0  9995
2 19574  82.5342   5.8983 0019073 270.9865 244.1366 14.85698401  6730
SL-16 R/B               
1 19650U 88102B   26107.11831543 -.00000195  00000+0 -74344-4 0  9994
2 19650  70.9993  70.6352 0016121 306.5127  53.4511 14.16159661932337
INTERCOSMOS 24          
1 20261U 89080A   26106.61353492  .00000252  00000+0  70961-4 0  9999
2 20261  82.6027  79.7027 1187314 204.7388 149.2028 12.59597404671575
SL-14 R/B               
1 20262U 89080C   26107.28307905  .00000241  00000+0  62460-4 0  9995
2 20262  82.5923 148.4206 1230961  96.5816 277.6570 12.50525210664974
DELTA 1 R/B             
1 20323U 89089B   26107.10874531  .00000161  00000+0  48525-4 0  9994
2 20323  97.0673 308.4276 0069103   2.4443 357.7080 14.50693013901305
ARIANE 40 R/B           
1 20443U 90005H   26107.17227068  .00000137  00000+0  57022-4 0  9996
2 20443  98.3010 166.6720 0011388  90.3015 269.9479 14.39895124898347
DELTA 2 R/B(1)          
1 20453U 90008B   26106.74391076  .00035845  00000+0  35591-3 0  9993
2 20453  35.6027 284.1382 0076169 256.5943 102.6295 15.61001969932074
COSMOS 2058             
1 20465U 90010A   26107.17720644  .00001690  00000+0  97583-4 0  9995
2 20465  82.4717   9.5092 0009039 193.0141 167.0857 15.11661401948059
SL-14 R/B               
1 20466U 90010B   26107.26592834  .00000299  00000+0  33229-4 0  9995
2 20466  82.5028 231.1482 0020113 168.6212 191.5462 14.83606300934206
SL-14 R/B               
1 20511U 90018B   26107.11817959  .00000227  00000+0  25465-4 0  9990
2 20511  82.5241 187.1831 0015358 330.0467  29.9867 14.82180283928273
HST                     
1 20580U 90037B   26107.23666776  .00004180  00000+0  13199-3 0  9991
2 20580  28.4726 136.9211 0002095 181.6672 178.3917 15.30064950779222
SL-16 R/B               
1 20625U 90046B   26107.22416282 -.00000250  00000+0 -10419-3 0  9993
2 20625  70.9992 216.9801 0016425 249.2415 110.6948 14.15016166853843
