[
    {
        "OBJECT_NAME": "COSMOS 1975",
        "OBJECT_ID": "1988-093A",
        "EPOCH": "2026-04-17T05:20:48.180768",
        "MEAN_MOTION": 15.28561978,
        "ECCENTRICITY": 0.00126713,
        "INCLINATION": 82.5176,
        "RA_OF_ASC_NODE": 78.9777,
        "ARG_OF_PERICENTER": 43.2245,
        "MEAN_ANOMALY": 316.9987,
        "EPHEMERIS_TYPE": 0,
        "CLASSIFICATION_TYPE": "U",
        "NORAD_CAT_ID": 19573,
        "ELEMENT_SET_NO": 999,
        "REV_AT_EPOCH": 2529,
        "BSTAR": 0.00011809249,
        "MEAN_MOTION_DOT": 3.322e-05,
        "MEAN_MOTION_DDOT": 0
    },
    {
        "OBJECT_NAME": "SL-14 R/B",
        "OBJECT_ID": "1988-093B",
        "EPOCH": "2026-04-17T04:54:35.090784",
        "MEAN_MOTION": 14.85698401,
        "ECCENTRICITY": 0.00190736,
        "INCLINATION": 82.5342,
        "RA_OF_ASC_NODE": 5.8983,
        "ARG_OF_PERICENTER": 270.9865,
        "MEAN_ANOMALY": 244.1366,
        "EPHEMERIS_TYPE": 0,
        "CLASSIFICATION_TYPE": "U",
        "NORAD_CAT_ID": 19574,
        "ELEMENT_SET_NO": 999,
        "REV_AT_EPOCH": 673,
        "BSTAR": 2.6284629e-05,
        "MEAN_MOTION_DOT": 2.53e-06,
        "MEAN_MOTION_DDOT": 0
    },
    {
        "OBJECT_NAME": "SL-16 R/B",
        "OBJECT_ID": "1988-102B",
        "EPOCH": "2026-04-17T02:50:22.453152",
        "MEAN_MOTION": 14.16159661,
        "ECCENTRICITY": 0.00161211,
        "INCLINATION": 70.9993,
        "RA_OF_ASC_NODE": 70.6352,
        "ARG_OF_PERICENTER": 306.5127,
        "MEAN_ANOMALY": 53.4511,
        "EPHEMERIS_TYPE": 0,
        "CLASSIFICATION_TYPE": "U",
        "NORAD_CAT_ID": 19650,
        "ELEMENT_SET_NO": 999,
        "REV_AT_EPOCH": 93233,
        "BSTAR": -7.434402e-05,
        "MEAN_MOTION_DOT": -1.95e-06,
        "MEAN_MOTION_DDOT": 0
    },
    {
        "OBJECT_NAME": "INTERCOSMOS 24",
        "OBJECT_ID": "1989-080A",
        "EPOCH": "2026-04-16T14:43:29.417088",
        "MEAN_MOTION": 12.59597404,
        "ECCENTRICITY": 0.11873149,
        "INCLINATION": 82.6027,
        "RA_OF_ASC_NODE": 79.7027,
        "ARG_OF_PERICENTER": 204.7388,
        "MEAN_ANOMALY": 149.2028,
        "EPHEMERIS_TYPE": 0,
        "CLASSIFICATION_TYPE": "U",
        "NORAD_CAT_ID": 20261,
        "ELEMENT_SET_NO": 999,
        "REV_AT_EPOCH": 67157,
        "BSTAR": 7.096143e-05,
        "MEAN_MOTION_DOT": 2.52e-06,
        "MEAN_MOTION_DDOT": 0
    },
    {
        "OBJECT_NAME": "SL-14 R/B",
        "OBJECT_ID": "1989-080C",
        "EPOCH": "2026-04-17T06:47:38.029920",
        "MEAN_MOTION": 12.5052521,
        "ECCENTRICITY": 0.12309613,
        "INCLINATION": 82.5923,
        "RA_OF_ASC_NODE": 148.4206,
        "ARG_OF_PERICENTER": 96.5816,
        "MEAN_ANOMALY": 277.657,
        "EPHEMERIS_TYPE": 0,
        "CLASSIFICATION_TYPE": "U",
        "NORAD_CAT_ID": 20262,
        "ELEMENT_SET_NO": 999,
        "REV_AT_EPOCH": 66497,
        "BSTAR": 6.2459993e-05,
        "MEAN_MOTION_DOT": 2.41e-06,
        "MEAN_MOTION_DDOT": 0
    },
    {
        "OBJECT_NAME": "DELTA 1 R/B",
        "OBJECT_ID": "1989-089B",
        "EPOCH": "2026-04-17T02:36:35.594784",
        "MEAN_MOTION": 14.50693013,
        "ECCENTRICITY": 0.00691031,
        "INCLINATION": 97.0673,
        "RA_OF_ASC_NODE": 308.4276,
        "ARG_OF_PERICENTER": 2.4443,
        "MEAN_ANOMALY": 357.708,
        "EPHEMERIS_TYPE": 0,
        "CLASSIFICATION_TYPE": "U",
        "NORAD_CAT_ID": 20323,
        "ELEMENT_SET_NO": 999,
        "REV_AT_EPOCH": 90130,
        "BSTAR": 4.8524618e-05,
        "MEAN_MOTION_DOT": 1.61e-06,
        "MEAN_MOTION_DDOT": 0
    },
    {
        "OBJECT_NAME": "ARIANE 40 R/B",
        "OBJECT_ID": "1990-005H",
        "EPOCH": "2026-04-17T04:08:04.186752",
        "MEAN_MOTION": 14.39895124,
        "ECCENTRICITY": 0.0011388,
        "INCLINATION": 98.301,
        "RA_OF_ASC_NODE": 166.672,
        "ARG_OF_PERICENTER": 90.3015,
        "MEAN_ANOMALY": 269.9479,
        "EPHEMERIS_TYPE": 0,
        "CLASSIFICATION_TYPE": "U",
        "NORAD_CAT_ID": 20443,
        "ELEMENT_SET_NO": 999,
        "REV_AT_EPOCH": 89834,
        "BSTAR": 5.7021769e-05,
        "MEAN_MOTION_DOT": 1.37e-06,
        "MEAN_MOTION_DDOT": 0
    },
    {
        "OBJECT_NAME": "DELTA 2 R/B(1)",
        "OBJECT_ID": "1990-008B",
        "EPOCH": "2026-04-16T17:51:13.889664",
        "MEAN_MOTION": 15.61001969,
        "ECCENTRICITY": 0.00761699,
        "INCLINATION": 35.6027,
        "RA_OF_ASC_NODE": 284.1382,
        "ARG_OF_PERICENTER": 256.5943,
        "MEAN_ANOMALY": 102.6295,
        "EPHEMERIS_TYPE": 0,
        "CLASSIFICATION_TYPE": "U",
        "NORAD_CAT_ID": 20453,
        "ELEMENT_SET_NO": 999,
        "REV_AT_EPOCH": 93207,
        "BSTAR": 0.00035591186,
        "MEAN_MOTION_DOT": 0.00035845,
        "MEAN_MOTION_DDOT": 0
    },
    {
        "OBJECT_NAME": "COSMOS 2058",
        "OBJECT_ID": "1990-010A",
        "EPOCH": "2026-04-17T04:15:10.636416",
        "MEAN_MOTION": 15.11661401,
        "ECCENTRICITY": 0.00090391,
        "INCLINATION": 82.4717,
        "RA_OF_ASC_NODE": 9.5092,
        "ARG_OF_PERICENTER": 193.0141,
        "MEAN_ANOMALY": 167.0857,
        "EPHEMERIS_TYPE": 0,
        "CLASSIFICATION_TYPE": "U",
        "NORAD_CAT_ID": 20465,
        "ELEMENT_SET_NO": 999,
        "REV_AT_EPOCH": 94805,
        "BSTAR": 9.7583076e-05,
        "MEAN_MOTION_DOT": 1.69e-05,
        "MEAN_MOTION_DDOT": 0
    },
    {
        "OBJECT_NAME": "SL-14 R/B",
        "OBJECT_ID": "1990-010B",
        "EPOCH": "2026-04-17T06:22:56.208576",
        "MEAN_MOTION": 14.836063,
        "ECCENTRICITY": 0.00201138,
        "INCLINATION": 82.5028,
        "RA_OF_ASC_NODE": 231.1482,
        "ARG_OF_PERICENTER": 168.6212,
        "MEAN_ANOMALY": 191.5462,
        "EPHEMERIS_TYPE": 0,
        "CLASSIFICATION_TYPE": "U",
        "NORAD_CAT_ID": 20466,
        "ELEMENT_SET_NO": 999,
        "REV_AT_EPOCH": 93420,
        "BSTAR": 3.3229376e-05,
        "MEAN_MOTION_DOT": 2.99e-06,
        "MEAN_MOTION_DDOT": 0
    },
    {
        "OBJECT_NAME": "SL-14 R/B",
        "OBJECT_ID": "1990-018B",
        "EPOCH": "2026-04-17T02:50:10.716576",
        "MEAN_MOTION": 14.82180283,
        "ECCENTRICITY": 0.0015358,
        "INCLINATION": 82.5241,
        "RA_OF_ASC_NODE": 187.1831,
        "ARG_OF_PERICENTER": 330.0467,
        "MEAN_ANOMALY": 29.9867,
        "EPHEMERIS_TYPE": 0,
        "CLASSIFICATION_TYPE": "U",
        "NORAD_CAT_ID": 20511,
        "ELEMENT_SET_NO": 999,
        "REV_AT_EPOCH": 92827,
        "BSTAR": 2.5465205e-05,
        "MEAN_MOTION_DOT": 2.27e-06,
        "MEAN_MOTION_DDOT": 0
    },
    {
        "OBJECT_NAME": "HST",
        "OBJECT_ID": "1990-037B",
        "EPOCH": "2026-04-17T05:40:48.094464",
        "MEAN_MOTION": 15.3006495,
        "ECCENTRICITY": 0.00020955,
        "INCLINATION": 28.4726,
        "RA_OF_ASC_NODE": 136.9211,
        "ARG_OF_PERICENTER": 181.6672,
        "MEAN_ANOMALY": 178.3917,
        "EPHEMERIS_TYPE": 0,
        "CLASSIFICATION_TYPE": "U",
        "NORAD_CAT_ID": 20580,
        "ELEMENT_SET_NO": 999,
        "REV_AT_EPOCH": 77922,
        "BSTAR": 0.00013198959,
        "MEAN_MOTION_DOT": 4.18e-05,
        "MEAN_MOTION_DDOT": 0
    },
    {
        "OBJECT_NAME": "SL-16 R/B",
        "OBJECT_ID": "1990-046B",
        "EPOCH": "2026-04-17T05:22:47.667648",
        "MEAN_MOTION": 14.15016166,
        "ECCENTRICITY": 0.00164258,
        "INCLINATION": 70.9992,
        "RA_OF_ASC_NODE": 216.9801,
        "ARG_OF_PERICENTER": 249.2415,
        "MEAN_ANOMALY": 110.6948,
        "EPHEMERIS_TYPE": 0,
        "CLASSIFICATION_TYPE": "U",
        "NORAD_CAT_ID": 20625,
        "ELEMENT_SET_NO": 999,
        "REV_AT_EPOCH": 85384,
        "BSTAR": -0.00010418666,
        "MEAN_MOTION_DOT": -2.5e-06,
        "MEAN_MOTION_DDOT": 0
    }
]